GLOBALSTAR M068         
1 32266U 07048D   25011.85520461 -.00000084  00000+0  11014-3 0  9990
2 32266  51.9896  58.8051 0001393 144.8315  26.5156 12.62813183797809
GLOBALSTAR M079         
1 37188U 10054A   25012.12825279 -.00000066  00000+0  20928-3 0  9999
2 37188  52.0026 254.8582 0000806  53.4791 111.4450 12.62269841657422
GLOBALSTAR M074         
1 37189U 10054B   25012.15582404 -.00000058  00000+0  25380-3 0  9991
2 37189  52.0001 254.1202 0001127  69.7526 100.7837 12.62261694657429
GLOBALSTAR M076         
1 37190U 10054C   25011.91020719 -.00000062  00000+0  23494-3 0  9991
2 37190  52.0015 255.0246 0001104  52.9831 321.1173 12.62276152657047
GLOBALSTAR M077         
1 37191U 10054D   25011.84195963 -.00000075  00000+0  16037-3 0  9997
2 37191  52.0042 212.0438 0001108  84.0074  38.7543 12.62269892657408
GLOBALSTAR M075         
1 37192U 10054E   25012.19017727 -.00000074  00000+0  16406-3 0  9997
2 37192  51.9959 296.5147 0000776  62.3921  85.3228 12.62271598656670
GLOBALSTAR M073         
1 37193U 10054F   25011.86381481 -.00000078  00000+0  14259-3 0  9990
2 37193  52.0030 211.2073 0001077  77.4675  25.9011 12.62262436658092
GLOBALSTAR M083         
1 37739U 11033A   25011.80839799 -.00000106  00000+0 -15093-4 0  9999
2 37739  51.9839 160.3191 0000811 106.8994  45.0595 12.62270593627105
GLOBALSTAR M088         
1 37740U 11033B   25011.86531179 -.00000094  00000+0  55012-4 0  9998
2 37740  51.9744  65.7690 0000415 138.2261  32.7982 12.62267234622656
GLOBALSTAR M091         
1 37741U 11033C   25011.79945862 -.00000092  00000+0  66062-4 0  9994
2 37741  52.0017  29.2460 0000225 186.0027 344.9311 12.62272565623436
GLOBALSTAR M085         
1 37742U 11033D   25011.62791659 -.00000091  00000+0  69273-4 0  9996
2 37742  51.9894 340.9452 0000182  43.3865 128.0426 12.62263736623921
GLOBALSTAR M081         
1 37743U 11033E   25011.65394917 -.00000096  00000+0  44639-4 0  9990
2 37743  51.9981 343.5541 0000400  11.9507 159.0410 12.62275176624079
GLOBALSTAR M089         
1 37744U 11033F   25011.89996807 -.00000071  00000+0  18356-3 0  9992
2 37744  51.9941 297.0657 0000898  55.8258 332.5776 12.62264970624958
GLOBALSTAR M084         
1 38040U 11080A   25011.86300771 -.00000103  00000+0  33319-5 0  9994
2 38040  51.9988 164.3799 0001289  93.3768  67.1910 12.62273467603207
GLOBALSTAR M080         
1 38041U 11080B   25011.83579854 -.00000110  00000+0 -33875-4 0  9997
2 38041  52.0040 166.0183 0001310  78.5983  76.0407 12.62260472603048
GLOBALSTAR M082         
1 38042U 11080C   25011.84765031 -.00000119  00000+0 -86918-4 0  9998
2 38042  52.0071 121.4092 0000952 145.9731   4.1655 12.62271951603757
GLOBALSTAR M092         
1 38043U 11080D   25011.89125201 -.00000076  00000+0  15673-3 0  9993
2 38043  52.0054 211.6457 0001155  87.8624  20.5107 12.62271935602213
GLOBALSTAR M090         
1 38044U 11080E   25011.71775957 -.00000114  00000+0 -59319-4 0  9994
2 38044  51.9883 115.8149 0000749 130.3039  29.0303 12.62265568603855
GLOBALSTAR M086         
1 38045U 11080F   25011.48933840 -.00000118  00000+0 -80827-4 0  9998
2 38045  51.9894 117.0487 0000534  39.4935  41.8064 12.62265563603775
GLOBALSTAR M097         
1 39072U 13005A   25011.73575465 -.00000085  00000+0  10479-3 0  9998
2 39072  52.0062  30.6880 0000084 106.9999 253.0877 12.62268834551058
GLOBALSTAR M093         
1 39073U 13005B   25012.10465900 -.00000089  00000+0  84114-4 0  9995
2 39073  51.9827  23.1133 0000051  70.5986 289.4886 12.62260910551173
GLOBALSTAR M094         
1 39074U 13005C   25012.10506731 -.00000089  00000+0  80631-4 0  9994
2 39074  51.9970 297.3429 0000526  33.2515 326.8384 12.62266833552683
GLOBALSTAR M096         
1 39075U 13005D   25011.64318354 -.00000095  00000+0  47610-4 0  9992
2 39075  52.0096 347.1401 0000125 352.7192   7.3673 12.62266549551522
GLOBALSTAR M078         
1 39076U 13005E   25011.45781651 -.00000062  00000+0  23109-3 0  9996
2 39076  51.9883  72.4230 0001198 169.8229 190.2662 12.62267231550126
GLOBALSTAR M095         
1 39077U 13005F   25011.48461240 -.00000091  00000+0  70495-4 0  9992
2 39077  51.9808  69.6188 0000694 181.2532 178.8333 12.62265224550340
GLOBALSTAR M087         
1 52888U 22064A   25011.89867528 -.00000084  00000+0  11229-3 0  9997
2 52888  51.9759 210.2502 0010944 253.1338 106.8336 12.80131228125298
